     2.10           G: GLONASS NAV DATA                     RINEX VERSION / TYPE
teqc  2015Jun23                         20220319 01:25:41UTCPGM / RUN BY / DATE
Linux 2.4.21-27.ELsmp|Opteron|gcc -static|Linux x86_64|=+   COMMENT
  2022     2    23    1.396983861923D-09                    CORR TO SYSTEM TIME
                                                            END OF HEADER
 2 22  2 24 12 45  0.0 5.106497555971D-04 1.818989403546D-12 4.500000000000D+04
   -2.011460693359D+04 1.527738571167D+00 0.000000000000D+00 0.000000000000D+00
    8.068617675781D+03-1.044829368591D+00 1.862645149231D-09-4.000000000000D+00
    1.354939257812D+04 2.893654823303D+00 0.000000000000D+00 0.000000000000D+00
14 22  2 24 12 45  0.0 7.472280412912D-05 0.000000000000D+00 4.500000000000D+04
   -5.963381347656D+03-3.442564010620D-01 0.000000000000D+00 0.000000000000D+00
    1.691985302734D+04-2.459566116333D+00-0.000000000000D+00-7.000000000000D+00
   -1.812380566406D+04-2.183147430420D+00 2.793967723846D-09 0.000000000000D+00
15 22  2 24 12 45  0.0 9.797699749470D-05-0.000000000000D+00 4.500000000000D+04
    2.776932128906D+03 7.699775695801D-02-0.000000000000D+00 0.000000000000D+00
    2.517397949219D+04-4.376649856567D-01 1.862645149231D-09 0.000000000000D+00
   -3.045296875000D+03-3.532393455505D+00 2.793967723846D-09 0.000000000000D+00
18 22  2 24 12 45  0.0 1.083398237824D-04 9.094947017729D-13 4.500000000000D+04
    4.320841308594D+03-2.774433135986D+00-0.000000000000D+00 0.000000000000D+00
    1.224923486328D+04-1.165205955505D+00 2.793967723846D-09-3.000000000000D+00
    2.195866210938D+04 1.202070236206D+00-0.000000000000D+00 0.000000000000D+00
 4 22  2 24 13 15  0.0 1.291790977120D-04 1.818989403546D-12 4.680000000000D+04
   -9.501026367188D+03-1.174983024597D+00 0.000000000000D+00 0.000000000000D+00
    1.934732275391D+04 1.463688850403D+00 0.000000000000D+00 6.000000000000D+00
   -1.362041503906D+04 2.891245841980D+00 2.793967723846D-09 0.000000000000D+00
 3 22  2 24 13 15  0.0 5.206279456615D-05 9.094947017729D-13 4.680000000000D+04
   -1.835276806641D+04 4.024562835693D-01 0.000000000000D+00 0.000000000000D+00
    1.750674316406D+04-1.818609237671D-01 1.862645149231D-09 5.000000000000D+00
    3.030063476562D+03 3.536752700806D+00 9.313225746155D-10 0.000000000000D+00
14 22  2 24 13 15  0.0 7.472373545170D-05 0.000000000000D+00 4.680000000000D+04
   -7.007345214844D+03-8.247146606445D-01 0.000000000000D+00 0.000000000000D+00
    1.214441699219D+04-2.798503875732D+00-9.313225746155D-10-7.000000000000D+00
   -2.130153857422D+04-1.324748992920D+00 2.793967723846D-09 0.000000000000D+00
15 22  2 24 13 15  0.0 9.797699749470D-05-0.000000000000D+00 4.680000000000D+04
    2.661455566406D+03-2.401638031006D-01 0.000000000000D+00 0.000000000000D+00
    2.363797314453D+04-1.246510505676D+00 9.313225746155D-10 0.000000000000D+00
   -9.203683105469D+03-3.265800476074D+00 2.793967723846D-09 0.000000000000D+00
 5 22  2 24 13 15  0.0 8.829496800900D-05 9.094947017729D-13 4.791000000000D+04
    4.577807617188D+03-2.120189666748D+00 0.000000000000D+00 0.000000000000D+00
    1.060667675781D+04 2.285017967224D+00-9.313225746155D-10 1.000000000000D+00
   -2.273138525391D+04 6.365041732788D-01 2.793967723846D-09 0.000000000000D+00
 4 22  2 24 13 45  0.0 1.291818916798D-04 1.818989403546D-12 4.860000000000D+04
   -1.099611572266D+04-4.986810684204D-01 0.000000000000D+00 0.000000000000D+00
    2.159327001953D+04 9.896011352539D-01 9.313225746155D-10 6.000000000000D+00
   -7.956353027344D+03 3.361189842224D+00 2.793967723846D-09 0.000000000000D+00
 3 22  2 24 13 45  0.0 5.206558853388D-05 9.094947017729D-13 4.860000000000D+04
   -1.718499853516D+04 8.557758331299D-01 0.000000000000D+00 0.000000000000D+00
    1.652326757812D+04-9.251556396484D-01 1.862645149231D-09 5.000000000000D+00
    9.197719238281D+03 3.271951675415D+00 0.000000000000D+00 0.000000000000D+00
 5 22  2 24 13 45  0.0 8.829589933157D-05 9.094947017729D-13 4.860000000000D+04
    1.209389160156D+03-1.600754737854D+00 0.000000000000D+00 0.000000000000D+00
    1.481856396484D+04 2.348406791687D+00-0.000000000000D+00 1.000000000000D+00
   -2.072105322266D+04 1.582606315613D+00 2.793967723846D-09 0.000000000000D+00
14 22  2 24 13 45  0.0 7.472466677427D-05 0.000000000000D+00 4.860000000000D+04
   -8.932617675781D+03-1.305510520935D+00 0.000000000000D+00 0.000000000000D+00
    7.024228027344D+03-2.840682029724D+00-1.862645149231D-09-7.000000000000D+00
   -2.283134765625D+04-3.640251159668D-01 2.793967723846D-09 0.000000000000D+00
15 22  2 24 13 45  0.0 9.797606617212D-05-0.000000000000D+00 4.860000000000D+04
    1.806661132812D+03-7.323122024536D-01 0.000000000000D+00 0.000000000000D+00
    2.079642675781D+04-1.873222351074D+00 0.000000000000D+00 0.000000000000D+00
   -1.465014990234D+04-2.746488571167D+00 2.793967723846D-09 0.000000000000D+00
 4 22  2 24 14 15  0.0 1.291846856475D-04 1.818989403546D-12 5.040000000000D+04
   -1.137152050781D+04 5.307960510254D-02 0.000000000000D+00 0.000000000000D+00
    2.277627880859D+04 2.941236495972D-01 9.313225746155D-10 6.000000000000D+00
   -1.676718261719D+03 3.570838928223D+00 1.862645149231D-09 0.000000000000D+00
 3 22  2 24 14 15  0.0 5.206745117903D-05 9.094947017729D-13 5.040000000000D+04
   -1.542432714844D+04 1.056673049927D+00 9.313225746155D-10 0.000000000000D+00
    1.415800585938D+04-1.698448181152D+00 1.862645149231D-09 5.000000000000D+00
    1.465788330078D+04 2.755781173706D+00-0.000000000000D+00 0.000000000000D+00
 5 22  2 24 14 15  0.0 8.829683065414D-05 9.094947017729D-13 5.040000000000D+04
   -1.139339843750D+03-1.005653381348D+00 0.000000000000D+00 0.000000000000D+00
    1.888644970703D+04 2.122535705566D+00 0.000000000000D+00 1.000000000000D+00
   -1.710790380859D+04 2.405862808228D+00 2.793967723846D-09 0.000000000000D+00
15 22  2 24 14 15  0.0 9.797513484955D-05-0.000000000000D+00 5.040000000000D+04
   -2.770263671875D+01-1.311869621277D+00 0.000000000000D+00 0.000000000000D+00
    1.704816162109D+04-2.245018005371D+00-0.000000000000D+00 0.000000000000D+00
   -1.896312304688D+04-2.014535903931D+00 2.793967723846D-09 0.000000000000D+00
 9 22  2 24 14 15  0.0 4.121195524931D-05 1.818989403546D-12 5.139000000000D+04
    1.681541357422D+04 1.057579040527D+00 9.313225746155D-10 0.000000000000D+00
    1.385440332031D+04 1.470299720764D+00 2.793967723846D-09-2.000000000000D+00
    1.321909570312D+04-2.895272254944D+00 9.313225746155D-10 0.000000000000D+00
18 22  2 24 14 15  0.0 1.083482056856D-04 9.094947017729D-13 5.193000000000D+04
   -1.197082470703D+04-2.798890113831D+00 9.313225746155D-10 0.000000000000D+00
    9.453748046875D+03 1.816196441650D-01 1.862645149231D-09-3.000000000000D+00
    2.048067626953D+04-1.715857505798D+00-9.313225746155D-10 0.000000000000D+00
 4 22  2 24 14 45  0.0 1.291884109378D-04 1.818989403546D-12 5.220000000000D+04
   -1.092891357422D+04 3.996734619141D-01 9.313225746155D-10 0.000000000000D+00
    2.257027685547D+04-5.369253158569D-01 1.862645149231D-09 6.000000000000D+00
    4.732596679688D+03 3.504423141479D+00 9.313225746155D-10 0.000000000000D+00
 3 22  2 24 14 45  0.0 5.207024514675D-05 9.094947017729D-13 5.220000000000D+04
   -1.353612353516D+04 1.000490188599D+00 9.313225746155D-10 0.000000000000D+00
    1.045909863281D+04-2.388325691223D+00 1.862645149231D-09 5.000000000000D+00
    1.899128173828D+04 2.028062820435D+00-9.313225746155D-10 0.000000000000D+00
 5 22  2 24 14 45  0.0 8.829776197672D-05 9.094947017729D-13 5.220000000000D+04
   -2.432627441406D+03-4.463052749634D-01 0.000000000000D+00 0.000000000000D+00
    2.229037597656D+04 1.616001129150D+00 0.000000000000D+00 1.000000000000D+00
   -1.217205810547D+04 3.042757987976D+00 2.793967723846D-09 0.000000000000D+00
 9 22  2 24 14 45  0.0 4.121474921703D-05 1.818989403546D-12 5.220000000000D+04
    1.847768652344D+04 7.470598220825D-01 9.313225746155D-10 0.000000000000D+00
    1.582574902344D+04 7.224807739258D-01 1.862645149231D-09-2.000000000000D+00
    7.562500488281D+03-3.348956108093D+00 9.313225746155D-10 0.000000000000D+00
15 22  2 24 14 45  0.0 9.797513484955D-05-0.000000000000D+00 5.220000000000D+04
   -2.904522949219D+03-1.872145652771D+00-0.000000000000D+00 0.000000000000D+00
    1.288724511719D+04-2.330230712891D+00-9.313225746155D-10 0.000000000000D+00
   -2.180860693359D+04-1.126539230347D+00 2.793967723846D-09 0.000000000000D+00
18 22  2 24 14 45  0.0 1.083482056856D-04 9.094947017729D-13 5.220000000000D+04
   -1.652667871094D+04-2.222869873047D+00 9.313225746155D-10 0.000000000000D+00
    1.011136328125D+04 5.201320648193D-01 1.862645149231D-09-3.000000000000D+00
    1.664301708984D+04-2.520567893982D+00-9.313225746155D-10 0.000000000000D+00
 4 22  2 24 15 15  0.0 1.291921362281D-04 1.818989403546D-12 5.400000000000D+04
   -1.008204541016D+04 4.988822937012D-01 9.313225746155D-10 0.000000000000D+00
    2.082789501953D+04-1.393506050110D+00 1.862645149231D-09 6.000000000000D+00
    1.077650341797D+04 3.167539596558D+00 0.000000000000D+00 0.000000000000D+00
 5 22  2 24 15 15  0.0 8.829962462187D-05 9.094947017729D-13 5.400000000000D+04
   -2.828636230469D+03-2.368927001953D-02 9.313225746155D-10 0.000000000000D+00
    2.456705908203D+04 8.823928833008D-01 9.313225746155D-10 1.000000000000D+00
   -6.295571289062D+03 3.444276809692D+00 1.862645149231D-09 0.000000000000D+00
 9 22  2 24 15 15  0.0 4.121754318476D-05 1.818989403546D-12 5.400000000000D+04
    1.936324316406D+04 2.019796371460D-01 9.313225746155D-10 0.000000000000D+00
    1.649669335938D+04 4.307174682617D-02 1.862645149231D-09-2.000000000000D+00
    1.319048828125D+03-3.542998313904D+00 1.862645149231D-09 0.000000000000D+00
15 22  2 24 15 15  0.0 9.797420352697D-05-0.000000000000D+00 5.400000000000D+04
   -6.690798828125D+03-2.305290222168D+00-0.000000000000D+00 0.000000000000D+00
    8.823716796875D+03-2.142925262451D+00-1.862645149231D-09 0.000000000000D+00
   -2.296614062500D+04-1.512308120728D-01 1.862645149231D-09 0.000000000000D+00
